1 44231U 19027A 26162.29534667 -.00000230 00000+0 00000+0 0 9996 
2 44231 1.6418 74.4980 0010353 283.3954 152.6134 1.00273096 26024 
1 44299U 19030A 26162.13778604 .00000120 00000+0 00000+0 0 9995 
2 44299 64.3681 192.8202 0013347 275.1444 263.0690 2.13102347 54791 
1 44337U 19035A 26161.99583588 -.00000037 00000+0 00000+0 0 9999 
2 44337 55.2455 158.9168 0039933 216.3389 2.4216 1.00268507 25603 
1 44506U 19056A 26161.92223289 -.00000063 00000+0 00000+0 0 9991 
2 44506 55.6404 331.3920 0061745 197.5539 346.1380 2.00569440 49949 
1 44542U 19061A 26161.79903003 .00000128 00000+0 00000+0 0 9992 
2 44542 54.3961 182.9435 0008272 359.0327 1.0298 1.86229290 45670 
1 44543U 19061B 26162.20259154 .00000129 00000+0 00000+0 0 9992 
2 44543 54.3946 182.8982 0005609 337.6908 204.5715 1.86227378 45688 
1 44624U 19067A 26162.19444483 -.00000025 00000+0 00000+0 0 9993 
2 44624 0.0627 352.3032 0003010 87.6177 244.6382 1.00271909 24379 
1 44709U 19073A 26136.81046384 -.00000217 00000+0 00000+0 0 9995 
2 44709 54.8566 281.2355 0042953 189.4588 170.3676 1.00246251 24144 
1 44793U 19078A 26160.56479635 -.00000061 00000+0 00000+0 0 9998 
2 44793 53.9433 300.0965 0006476 49.2798 310.7668 1.86227604 44501 
1 44794U 19078B 26159.63081975 -.00000059 00000+0 00000+0 0 9998 
2 44794 53.9173 300.0906 0004394 47.4319 312.5973 1.86228036 44491 
1 44850U 19088A 26160.99045334 -.00000023 00000+0 00000+0 0 9993 
2 44850 65.5614 73.9710 0013431 259.4785 100.3880 2.13102164 50565 
1 44864U 19090A 26157.45598128 -.00000038 00000+0 00000+0 0 9998 
2 44864 56.5493 63.1460 0018115 297.5322 241.6390 1.86231867 44034 
1 44865U 19090B 26161.09867501 -.00000050 00000+0 00000+0 0 9992 
2 44865 56.5539 63.0605 0015925 311.2740 239.7297 1.86231666 44086 
1 45344U 20017A 26162.14003939 -.00000125 00000+0 00000+0 0 9993 
2 45344 2.8509 47.2428 0002371 31.5276 311.1998 1.00273157 23193 
1 45358U 20018A 26162.12399576 -.00000043 00000+0 00000+0 0 9991 
2 45358 64.3590 312.6322 0008063 231.3813 128.5392 2.13102701 48538 
1 45807U 20040A 26162.07479620 -.00000337 00000+0 00000+0 0 9994 
2 45807 2.4310 67.4331 0002687 338.6905 350.8043 1.00270320 22009 
1 45854U 20041A 26161.50914235 -.00000064 00000+0 00000+0 0 9997 
2 45854 56.6651 29.2031 0063585 204.6514 339.4495 2.00558724 43909 
1 46114U 20056C 26162.24196549 .00000054 00000+0 00000+0 0 9993 
2 46114 0.0018 1.2399 0001952 75.7680 144.7071 1.00273396 21234 
1 46805U 20075A 26161.37497769 .00000116 00000+0 00000+0 0 9991 
2 46805 64.5990 192.7030 0009239 239.7771 120.2054 2.13100322 43767 
1 46826U 20078A 26162.28420613 .00000085 00000+0 00000+0 0 9997 
2 46826 53.9805 211.0184 0073334 207.0647 152.7945 2.00564772 41394 
1 48859U 21054A 26161.98872395 -.00000064 00000+0 00000+0 0 9992 
2 48859 55.1777 332.7092 0025286 228.5378 104.1627 2.00569255 36624 
1 49336U 21096A 26161.65003756 -.00000241 00000+0 00000+0 0 9997 
2 49336 37.4481 79.6817 0754393 271.6562 276.0833 1.00257812 16947 
1 49809U 21116A 26162.13215269 -.00000065 00000+0 00000+0 0 9997 
2 49809 57.1623 341.8389 0001404 187.4451 176.2704 1.70475860 28084 
1 49810U 21116B 26162.23135215 -.00000065 00000+0 00000+0 0 9992 
2 49810 57.1632 341.8351 0001023 156.6097 20.6106 1.70475898 28108 
1 52984U 22075A 26160.13153051 -.00000034 00000+0 00000+0 0 9994 
2 52984 64.3021 314.7692 0010229 275.2232 84.6583 2.13102144 30549 
1 54031U 22130A 26161.35892150 -.00000039 00000+0 00000+0 0 9991 
2 54031 64.2757 314.8093 0012427 178.3735 181.6269 2.13101643 28547 
1 54377U 22161A 26162.14075417 .00000120 00000+0 00000+0 0 9995 
2 54377 64.7412 192.9125 0012115 224.4932 135.4856 2.13102011 27504 
1 55268U 23009A 26158.73659273 .00000105 00000+0 00000+0 0 9998 
2 55268 55.1217 148.8905 0006217 315.6663 226.9396 2.00572207 25054 
1 56564U 23066A 26161.36764115 -.00000265 00000+0 00000+0 0 9994 
2 56564 0.4953 329.6081 0004397 171.1303 30.2733 1.00265779 11329 
1 56759U 23076A 26162.18239272 -.00000317 00000+0 00000+0 0 9991 
2 56759 2.1811 244.6325 0003093 38.1983 171.9232 1.00267834 11053 
1 57517U 23114A 26161.68380861 -.00000028 00000+0 00000+0 0 9991 
2 57517 65.2985 72.8397 0010917 296.8943 63.0123 2.13103653 22123 
